      2.10          N: GNSS NAV DATA                        RINEX VERSION / TYPE
fic2rin                                 01/16/2020 00:19:37 PGM / RUN BY / DATE
                                                            END OF HEADER
15 20  1 15  2  0  0.0-2.585495822132e-04 2.614797267597e-12 0.000000000000e+00
    1.070000000000e+02-2.562500000000e+00 5.161286416868e-09 1.365433247341e+00
   -9.872019290924e-08 1.213998021558e-02 1.162476837635e-05 5.153625650406e+03
    2.664000000000e+05-1.974403858185e-07 1.157010369395e+00 2.421438694000e-08
    9.279117162075e-01 1.419687500000e+02 8.582892416606e-01-8.403921485634e-09
    1.989368579472e-10 1.000000000000e+00 2.088000000000e+03 0.000000000000e+00
    2.400000000000e+00 0.000000000000e+00-1.117587089539e-08 1.070000000000e+02
    2.592000000000e+05 4.000000000000e+00
13 20  1 15  2  0  0.0-1.989211887121e-05 2.614797267597e-12 0.000000000000e+00
    5.800000000000e+01 1.712500000000e+01 4.279821128872e-09 1.385595838234e+00
    8.698552846909e-07 4.193032393232e-03 1.064687967300e-05 5.153666410446e+03
    2.664000000000e+05-7.078051567078e-08 1.383915945997e+00-4.842877388000e-08
    9.675060094916e-01 1.773750000000e+02 1.171524755006e+00-7.930687487824e-09
    3.960879272235e-10 1.000000000000e+00 2.088000000000e+03 0.000000000000e+00
    2.400000000000e+00 0.000000000000e+00-1.117587089539e-08 5.800000000000e+01
    2.592000000000e+05 4.000000000000e+00
14 20  1 15  2  0  0.0-3.872439265251e-05 2.273736754432e-12 0.000000000000e+00
    8.400000000000e+01 8.843750000000e+00 4.364110354142e-09 1.957760395116e+00
    4.693865776062e-07 1.079722773284e-02 1.230835914612e-05 5.153607618332e+03
    2.664000000000e+05-2.421438694000e-08 1.337871838544e+00-2.570450305939e-07
    9.601192036072e-01 1.384062500000e+02-1.930861025506e+00-7.855684363643e-09
    5.203788187237e-10 1.000000000000e+00 2.088000000000e+03 0.000000000000e+00
    2.400000000000e+00 0.000000000000e+00-9.778887033463e-09 8.400000000000e+01
    2.592000000000e+05 4.000000000000e+00
31 20  1 15  2  0  0.0-1.659197732806e-05-2.501110429876e-12 0.000000000000e+00
    9.200000000000e+01 2.415625000000e+01 5.037709840836e-09-1.013997430480e+00
    1.143664121628e-06 9.661276009865e-03 5.213543772697e-06 5.153755222321e+03
    2.664000000000e+05 1.098960638046e-07 2.333219657267e+00-1.806765794754e-07
    9.582044779084e-01 2.708750000000e+02 1.035411342981e-01-8.384634967987e-09
    2.489389407347e-10 1.000000000000e+00 2.088000000000e+03 0.000000000000e+00
    2.400000000000e+00 0.000000000000e+00-1.350417733192e-08 9.200000000000e+01
    2.592000000000e+05 4.000000000000e+00
30 20  1 15  2  0  0.0-1.294729299843e-04-8.867573342286e-12 0.000000000000e+00
    1.070000000000e+02 2.815625000000e+01 5.388438735816e-09-6.560937821510e-01
    1.486390829086e-06 4.180120187812e-03 5.340203642845e-06 5.153696567535e+03
    2.664000000000e+05 5.401670932770e-08 2.342906571211e+00 1.676380634308e-08
    9.390976369575e-01 2.621562500000e+02-2.930194734235e+00-8.585357614605e-09
    1.650068731986e-10 1.000000000000e+00 2.088000000000e+03 0.000000000000e+00
    2.400000000000e+00 0.000000000000e+00 3.725290298462e-09 1.070000000000e+02
    2.592000000000e+05 4.000000000000e+00
27 20  1 15  2  0  0.0-1.814058050513e-04-1.136868377216e-11 0.000000000000e+00
    7.900000000000e+01 8.809375000000e+01 4.040882604694e-09 2.258416362209e+00
    4.526227712631e-06 7.653996348381e-03 1.092627644539e-05 5.153664419174e+03
    2.664000000000e+05-2.030283212662e-07-1.885094217101e+00-3.166496753693e-08
    9.783363080228e-01 1.765937500000e+02 4.967017505588e-01-7.824968798502e-09
    1.410773050075e-10 1.000000000000e+00 2.088000000000e+03 0.000000000000e+00
    2.400000000000e+00 0.000000000000e+00 1.862645149231e-09 7.900000000000e+01
    2.592000000000e+05 4.000000000000e+00
19 20  1 15  2  0  0.0-2.123806625605e-04 5.115907697473e-12 0.000000000000e+00
    7.700000000000e+01 7.875000000000e+01 3.939806965917e-09-1.406740181747e+00
    4.287809133530e-06 9.148531942628e-03 8.823350071907e-06 5.153672948837e+03
    2.664000000000e+05-4.656612873077e-08-1.781644044123e+00 2.123415470123e-07
    9.820937414264e-01 2.231875000000e+02 1.549397969502e+00-7.874613723555e-09
    1.385772008681e-10 1.000000000000e+00 2.088000000000e+03 0.000000000000e+00
    2.400000000000e+00 0.000000000000e+00-1.536682248116e-08 7.700000000000e+01
    2.592000000000e+05 4.000000000000e+00
11 20  1 15  2  0  0.0-3.899093717337e-04 1.080024958355e-11 0.000000000000e+00
    6.000000000000e+01 7.146875000000e+01 5.969534369353e-09-6.213364519458e-01
    3.831461071968e-06 1.588818093296e-02 5.327165126801e-06 5.152863862991e+03
    2.664000000000e+05-1.564621925354e-07-1.295285854381e+00-9.685754776001e-08
    9.115004568870e-01 2.517500000000e+02 1.974792522721e+00-9.263957309578e-09
    3.725155167665e-10 1.000000000000e+00 2.088000000000e+03 0.000000000000e+00
    2.400000000000e+00 0.000000000000e+00-1.210719347000e-08 6.000000000000e+01
    2.592000000000e+05 4.000000000000e+00
12 20  1 15  2  0  0.0 1.622480340302e-04-4.092726157978e-12 0.000000000000e+00
    4.300000000000e+01-6.218750000000e+00 4.218032840856e-09-1.258478774064e+00
   -1.899898052216e-07 7.826804765500e-03 9.452924132347e-06 5.153764068604e+03
    2.664000000000e+05 9.499490261078e-08-2.861241436453e+00 1.974403858185e-07
    9.803133203847e-01 2.093750000000e+02 1.098748439740e+00-7.834969215059e-09
   -4.157316026042e-10 1.000000000000e+00 2.088000000000e+03 0.000000000000e+00
    2.400000000000e+00 0.000000000000e+00-1.257285475731e-08 4.300000000000e+01
    2.592000000000e+05 4.000000000000e+00
17 20  1 15  2  0  0.0 1.987554132938e-04 6.593836587854e-12 0.000000000000e+00
    6.600000000000e+01 6.453125000000e+01 3.874447100559e-09 2.160322255625e+00
    3.244727849960e-06 1.345612795558e-02 9.277835488319e-06 5.153636117935e+03
    2.664000000000e+05 1.601874828339e-07-1.827508528643e+00-1.862645149231e-07
    9.840542681645e-01 2.075000000000e+02-1.662951473130e+00-7.603531003300e-09
    7.500312418118e-11 1.000000000000e+00 2.088000000000e+03 0.000000000000e+00
    2.400000000000e+00 0.000000000000e+00-1.117587089539e-08 6.600000000000e+01
    2.592000000000e+05 4.000000000000e+00
32 20  1 15  2  0  0.0 1.851483248174e-04 1.057287590811e-11 0.000000000000e+00
    8.500000000000e+01 3.375000000000e+00 4.339466470482e-09 3.029161829869e+00
    2.663582563400e-07 3.422453999519e-03 1.248531043530e-05 5.153674819946e+03
    2.664000000000e+05 1.490116119385e-08 1.250844814022e+00-1.117587089539e-08
    9.565022220426e-01 1.351562500000e+02-2.546003695890e+00-7.853184259503e-09
    4.725196823414e-10 1.000000000000e+00 2.088000000000e+03 0.000000000000e+00
    2.400000000000e+00 0.000000000000e+00 4.656612873077e-10 8.500000000000e+01
    2.592000000000e+05 4.000000000000e+00
26 20  1 15  2  0  0.0 1.274873502553e-04 7.958078640513e-12 0.000000000000e+00
    9.900000000000e+01-1.818750000000e+01 4.968778398136e-09-2.217490803233e+00
   -1.139938831329e-06 4.530607722700e-03 9.207054972649e-06 5.153729211807e+03
    2.664000000000e+05 1.303851604462e-08-2.961255786864e+00-1.043081283569e-07
    9.488104284599e-01 1.976250000000e+02 1.685623847742e-01-8.251415133132e-09
   -4.571618997710e-10 1.000000000000e+00 2.088000000000e+03 0.000000000000e+00
    3.400000000000e+00 0.000000000000e+00 7.450580596924e-09 9.900000000000e+01
    2.592000000000e+05 4.000000000000e+00
20 20  1 15  2  0  0.0 5.277935415506e-04 0.000000000000e+00 0.000000000000e+00
    9.100000000000e+01-1.105625000000e+02 5.161286416868e-09-4.091504937318e-01
   -5.813315510750e-06 5.068898433819e-03 6.798654794693e-06 5.153624534607e+03
    2.664000000000e+05-1.490116119385e-08 8.242746525193e-02-1.247972249985e-07
    9.331156215654e-01 2.366562500000e+02 2.557602854425e+00-8.555713522667e-09
   -3.192990143713e-10 1.000000000000e+00 2.088000000000e+03 0.000000000000e+00
    2.400000000000e+00 0.000000000000e+00-8.381903171539e-09 9.100000000000e+01
    2.592000000000e+05 4.000000000000e+00
28 20  1 15  2  0  0.0 7.452303543687e-04-2.046363078989e-12 0.000000000000e+00
    7.300000000000e+01-1.165625000000e+01 4.086241636937e-09 2.965525463959e+00
   -5.867332220078e-07 1.883897883818e-02 9.305775165558e-06 5.153710523605e+03
    2.664000000000e+05 3.017485141754e-07-2.838557332164e+00 7.450580596924e-09
    9.795831852859e-01 2.055312500000e+02-1.420695987199e+00-7.550314500905e-09
   -4.632335812523e-10 1.000000000000e+00 2.088000000000e+03 0.000000000000e+00
    3.400000000000e+00 0.000000000000e+00-1.117587089539e-08 7.300000000000e+01
    2.592000000000e+05 4.000000000000e+00
18 20  1 15  2  0  0.0 1.134825870395e-04 2.387423592154e-12 0.000000000000e+00
    3.900000000000e+01 2.515625000000e+01 5.051638992469e-09-2.340209541292e-01
    1.376494765282e-06 1.564073062036e-02 3.488734364510e-06 5.153648349762e+03
    2.664000000000e+05-1.788139343262e-07-8.893553355052e-01 7.264316082001e-08
    9.570360218318e-01 3.104062500000e+02 1.451094964067e+00-8.907513890850e-09
    1.671498196038e-10 1.000000000000e+00 2.088000000000e+03 0.000000000000e+00
    2.400000000000e+00 6.300000000000e+01-5.587935447693e-09 3.900000000000e+01
    2.592000000000e+05 4.000000000000e+00
 4 20  1 15  2  0  0.0-3.447849303484e-05-5.456968210638e-12 0.000000000000e+00
    1.540000000000e+02-1.906250000000e+00 4.369467720155e-09 1.364018726981e+00
   -1.303851604462e-08 4.565630806610e-04 1.173652708530e-05 5.153733261108e+03
    2.664000000000e+05-1.490116119385e-08 1.289931667837e+00 1.862645149231e-09
    9.596234762611e-01 1.525312500000e+02-2.737479504678e+00-7.907829392835e-09
    3.878732993369e-10 1.000000000000e+00 2.088000000000e+03 0.000000000000e+00
    2.400000000000e+00 0.000000000000e+00-4.190951585770e-09 1.540000000000e+02
    2.593200000000e+05 4.000000000000e+00
